#aV2020  6  5  0  0  0.00000000     288 DD+AD WGS84 FIT  NGA
## 2108 432000.00000000   300.00000000 59005 0.0000000000000
+   32     1  2  3  4  5  6  7  8  9 10 11 12 13 14 15 16 17
+         18 19 20 21 22 23 24 25 26 27 28 29 30 31 32  0  0
+          0  0  0  0  0  0  0  0  0  0  0  0  0  0  0  0  0
+          0  0  0  0  0  0  0  0  0  0  0  0  0  0  0  0  0
+          0  0  0  0  0  0  0  0  0  0  0  0  0  0  0  0  0
++         2  2  2  2  2  2  2  2  2  2  2  2  2  2  2  2  2
++         2  2  2  2  2  2  2  2  2  2  2  2  2  2  2  0  0
++         0  0  0  0  0  0  0  0  0  0  0  0  0  0  0  0  0
++         0  0  0  0  0  0  0  0  0  0  0  0  0  0  0  0  0
++         0  0  0  0  0  0  0  0  0  0  0  0  0  0  0  0  0
%c cc cc ccc ccc cccc cccc cccc cccc ccccc ccccc ccccc ccccc
%c cc cc ccc ccc cccc cccc cccc cccc ccccc ccccc ccccc ccccc
%f  0.0000000  0.000000000  0.00000000000  0.000000000000000
%f  0.0000000  0.000000000  0.00000000000  0.000000000000000
%i    0    0    0    0      0      0      0      0         0
%i    0    0    0    0      0      0      0      0         0
/*      NGA, ST. LOUIS,MO.                                  
/*   EPHEMERIS COMPUTED FROM 2 DAYS OF DATA                 
/*   EPOCHA v5 SMOOTHER                                     
/*   G1762 IERS2010 SATAF SATAPC                            
*  2020  6  5 12 25  0.00000000
P  1   4457.413978 -16648.261328 -20333.877683   -387.833808                    
V  1  23766.741542  -8920.664184  12982.053536     -0.011242                    
P  2 -21649.890975  14795.604101   4663.797017   -467.318017                    
V  2  -5837.371843   -116.013227 -31034.920041     -0.060221                    
P  3  -6230.733709 -19432.693154 -17114.554449   -198.997403                    
V  3  18220.986727  11640.837387 -19818.410835     -0.123917                    
P  4   -306.481188 -25867.336246   5959.390295    -98.575367                    
V  4   3878.569216  -7058.422408 -30531.358266     -0.048748                    
P  5 -13560.342558   8737.471242  20993.541937    -14.046236                    
V  5 -21747.081212 -15964.067290  -7159.386302     -0.007551                    
P  6 -25032.060592   5904.922401  -6668.313100   -283.754705                    
V  6   6997.574126  -5268.283114 -30646.221881     -0.062340                    
P  7 -14794.309284  -9491.471561  20354.860187   -297.444429                    
V  7  22816.481512 -10384.758215  11436.986597     -0.087610                    
P  8   6576.819304 -24926.309771   5812.940484    -36.475808                    
V  8   1895.384326   7647.525693  30956.091217     -0.013357                    
P  9  -8907.049729 -19765.677787  15285.024026   -230.706422                    
V  9   4194.445817 -19195.687156 -22323.410658     -0.070265                    
P 10  23223.559464  10324.906897  -8032.954816   -362.333252                    
V 10   6852.585011   7966.763876  29489.708557     -0.112473                    
P 11   9448.848744 -23156.311141  -9881.593512   -257.315642                    
V 11  10268.499093  -6865.472053  26953.776919      0.106664                    
P 12   4608.697487  19625.188475 -17611.386405    109.652641                    
V 12 -17302.695648 -13306.898387 -19468.504165     -0.044450                    
P 13 -13113.890183  19943.898357  11430.333045     15.798572                    
V 13   1318.630286 -14842.425149  27223.174374      0.031556                    
P 14  15635.695225  -6450.549939 -20080.806270     -8.044991                    
V 14  -4026.372401  26055.752353 -11490.929106      0.026835                    
P 15  -3833.317403  25593.538195   4687.641987   -226.345029                    
V 15  -4051.068237  -6487.434433  30470.122345      0.026005                    
P 16  12417.527961  -8491.676171  21710.156627   -166.743818                    
V 16  20773.424509  18761.841081  -4067.865924     -0.046146                    
P 17 -14051.570152  -3816.422813 -21795.629312    276.025164                    
V 17   5092.408775 -28172.936406   1575.082116      0.058965                    
P 18  14006.509080   9636.923140  20402.418861    211.353722                    
V 18 -23698.092374  10519.282001  11272.875930      0.111096                    
P 19 -15617.838035   4802.913236 -21235.910609   -149.273637                    
V 19   5153.222921 -25709.179260  -9770.217426      0.050796                    
P 20  21556.890813  15227.922215   3827.114742    527.571702                    
V 20  -5980.739407    585.420619  30509.533674     -0.000708                    
P 21  19812.405999   4095.575088  17841.750015      7.747068                    
V 21 -18167.098975  11236.248841  18663.739420      0.048019                    
P 22   2090.021170 -16607.255436 -20437.524544   -779.449634                    
V 22  23039.094808  13163.358543  -8113.016576      0.017694                    
P 23 -12527.173965 -14041.709898  18997.375847   -108.337935                    
V 23   3930.841494 -23228.980654 -15271.132317      0.031698                    
P 24  -5320.153004  18111.113788 -18739.364062    -13.927263                    
V 24 -21928.910371   8923.654038  15375.539464     -0.005427                    
P 25  14188.491468  19968.953425 -10827.966347     10.206495                    
V 25 -11883.581548  -6312.975693 -27573.411942      0.034925                    
P 26  21006.117286    254.775149  16346.428952    219.737777                    
V 26  15923.465017  13493.234591 -20406.720698      0.070504                    
P 27  12212.560354 -17979.605537  14884.386164   -312.576502                    
V 27   -324.327671  19350.390087  23740.219246     -0.099776                    
P 28 -21842.378895 -11349.471425  -9198.254178    711.318548                    
V 28  -7749.285340 -10130.910342  29219.461534     -0.032906                    
P 29   4487.497704  22671.985171  13016.669781   -120.872035                    
V 29  -4733.905125  15970.125160 -26117.432349     -0.087231                    
P 30 -22797.076145  -1888.173693  13719.161700   -235.264429                    
V 30  15211.393978  -8663.340105  23945.022719     -0.080027                    
P 31  25554.229043  -6370.802501  -5025.079636    -47.116355                    
V 31  -4902.119979   4587.775367 -30550.353003     -0.025274                    
P 32  15099.024430   2369.328010 -21640.308192    294.331773                    
V 32  -3069.795425  27521.704122    723.148445      0.071460                    
EOF
